ORBCOMM FM06            
1 25118U 97084G   26183.20816748  .00001457  00000+0  43093-3 0  9999
2 25118  45.0147 340.3994 0000378 185.3995 344.6234 14.47601217496569
ORBCOMM FM04            
1 25159U 98007C   26182.95618983  .00000783  00000+0  31325-3 0  9998
2 25159 107.9627 199.8166 0041740 299.4550  60.2429 14.35766640478718
ORBCOMM FM19            
1 25415U 98046C   26183.27129458  .00000941  00000+0  34433-3 0  9995
2 25415  44.9922 171.8592 0004015 347.1083  27.2155 14.39520422458953
ORBCOMM FM20            
1 25416U 98046D   26182.74059474  .00000528  00000+0  21916-3 0  9990
2 25416  44.9921 182.4652 0002359 299.2840  60.7773 14.38083068458884
ORBCOMM FM27            
1 25481U 98053G   26181.93226480  .00000799  00000+0  30133-3 0  9994
2 25481  45.0052 270.0688 0002109 243.3176 116.7457 14.39166005452217
ORBCOMM FM32            
1 25982U 99065C   26182.81913674  .00000742  00000+0  29463-3 0  9992
2 25982  45.0149 103.9796 0004478 121.7676 238.3609 14.37150816389196
ORBCOMM FM109           
1 40086U 14040A   26183.57640617  .00000528  00000+0  14792-3 0  9993
2 40086  47.0041  18.7274 0001882 286.7342  73.3338 14.58862384636591
ORBCOMM FM110           
1 41182U 15081D   26183.58160875  .00000804  00000+0  20611-3 0  9995
2 41182  47.0025 288.6535 0002905 164.8936 195.2037 14.58904662559872
ORBCOMM FM118           
1 41183U 15081E   26183.54744062  .00000513  00000+0  14467-3 0  9997
2 41183  47.0044 289.1494 0002323 119.2473 240.8645 14.58894796559977
ORBCOMM FM112           
1 41184U 15081F   26183.48322547  .00000494  00000+0  14064-3 0  9992
2 41184  46.9969 197.9148 0004144 277.6663  82.3752 14.58920763561185
ORBCOMM FM113           
1 41185U 15081G   26183.46035330  .00000345  00000+0  10929-3 0  9993
2 41185  46.9988 198.4071 0002622 276.7914  83.2674 14.58871678561167
ORBCOMM FM108           
1 41187U 15081J   26183.49105904  .00000721  00000+0  18868-3 0  9991
2 41187  47.0047 109.8395 0003134 277.2478  82.8052 14.58893747562316
ORBCOMM FM117           
1 41188U 15081K   26183.52517041  .00000638  00000+0  17125-3 0  9997
2 41188  47.0010 108.3083 0003576 281.8418  78.2066 14.58880991562366
ORBCOMM FM116           
1 41189U 15081L   26182.47813415  .00000304  00000+0  10040-3 0  9994
2 41189  47.0005 203.0491 0000940 184.3505 175.7373 14.58897315561027
